IDEFIX & ARIANE 42P R/B 
1 27422U 02021B   26044.44324580  .00000317  00000+0  13692-3 0  9992
2 27422  98.5845 343.3432 0010629 258.6929 101.3060 14.31008555240558
AQUA                    
1 27424U 02022A   26044.53449289  .00001198  00000+0  24928-3 0  9991
2 27424  98.4129  11.4681 0001347  49.6566  64.7381 14.61916493265204
CZ-4B R/B               
1 27432U 02024C   26044.17589694  .00000042  00000+0  44289-4 0  9997
2 27432  98.8896  97.6994 0051203  92.7622 335.7469 14.14543181225773
MIDORI II (ADEOS-II)    
1 27597U 02056A   26044.51188962  .00000366  00000+0  16187-3 0  9999
2 27597  98.7724   2.8293 0002193  75.7486 284.3939 14.29266963206841
H-2A R/B                
1 27601U 02056E   26044.50064981  .00000333  00000+0  13156-3 0  9995
2 27601  98.3156   5.7936 0069168 233.1631 237.1382 14.33743734210647
CZ-4B R/B               
1 28059U 03049C   26044.52093010  .00000543  00000+0  13623-3 0  9995
2 28059  98.6852  38.4827 0047250 306.4050  53.2792 14.54994086183080
CZ-2C R/B               
1 28222U 04012C   26044.15282185  .00047604  00000+0  54856-3 0  9992
2 28222  97.7303 107.1704 0015478  44.4307 315.8188 15.61682346200440
SL-16 R/B               
1 28353U 04021B   26044.06118393  .00000280  00000+0  17044-3 0  9993
2 28353  70.9991 284.1794 0003100  70.6385 289.5073 14.14592032119350
CZ-4B R/B               
1 28415U 04035C   26044.03752901  .00008731  00000+0  31112-3 0  9994
2 28415  97.3546  78.5800 0033853  58.1082 302.3444 15.28604047176146
CZ-2C R/B               
1 28480U 04046B   26044.36460145  .00000123  00000+0  61459-4 0  9995
2 28480  98.1994 320.8597 0138431 226.5078 132.4529 14.26983613105036
ARIANE 5 R/B            
1 28499U 04049H   26044.44703766  .00001057  00000+0  12249-3 0  9995
2 28499  98.2586 212.0036 0085391  69.9935 291.0448 14.85217459142194
CZ-2D R/B               
1 28738U 05024B   26044.51115740  .00039181  00000+0  52221-3 0  9995
2 28738  97.3616  58.8124 0007663 104.4823 255.7284 15.57996012136013
