CCSDS_OMM_VERS = 2.0
CREATION_DATE  = 
ORIGINATOR     = 

OBJECT_NAME    = IDEFIX & ARIANE 42P R/B
OBJECT_ID      = 2002-021B
CENTER_NAME    = EARTH
REF_FRAME      = TEME
TIME_SYSTEM    = UTC
MEAN_ELEMENT_THEORY = SGP/SGP4

EPOCH          = 2026-02-13T10:38:16.437120
MEAN_MOTION    = 14.31008555
ECCENTRICITY   = .0010629
INCLINATION    = 98.5845
RA_OF_ASC_NODE = 343.3432
ARG_OF_PERICENTER = 258.6929
MEAN_ANOMALY   = 101.3060

EPHEMERIS_TYPE = 0
CLASSIFICATION_TYPE = U
NORAD_CAT_ID   = 27422
ELEMENT_SET_NO = 999
REV_AT_EPOCH   = 24055
BSTAR          = .13692E-3
MEAN_MOTION_DOT = .317E-5
MEAN_MOTION_DDOT = 0

CCSDS_OMM_VERS = 2.0
CREATION_DATE  = 
ORIGINATOR     = 

OBJECT_NAME    = AQUA
OBJECT_ID      = 2002-022A
CENTER_NAME    = EARTH
REF_FRAME      = TEME
TIME_SYSTEM    = UTC
MEAN_ELEMENT_THEORY = SGP/SGP4

EPOCH          = 2026-02-13T12:49:40.185696
MEAN_MOTION    = 14.61916493
ECCENTRICITY   = .0001347
INCLINATION    = 98.4129
RA_OF_ASC_NODE = 11.4681
ARG_OF_PERICENTER = 49.6566
MEAN_ANOMALY   = 64.7381

EPHEMERIS_TYPE = 0
CLASSIFICATION_TYPE = U
NORAD_CAT_ID   = 27424
ELEMENT_SET_NO = 999
REV_AT_EPOCH   = 26520
BSTAR          = .24928E-3
MEAN_MOTION_DOT = .1198E-4
MEAN_MOTION_DDOT = 0

CCSDS_OMM_VERS = 2.0
CREATION_DATE  = 
ORIGINATOR     = 

OBJECT_NAME    = CZ-4B R/B
OBJECT_ID      = 2002-024C
CENTER_NAME    = EARTH
REF_FRAME      = TEME
TIME_SYSTEM    = UTC
MEAN_ELEMENT_THEORY = SGP/SGP4

EPOCH          = 2026-02-13T04:13:17.495616
MEAN_MOTION    = 14.14543181
ECCENTRICITY   = .0051203
INCLINATION    = 98.8896
RA_OF_ASC_NODE = 97.6994
ARG_OF_PERICENTER = 92.7622
MEAN_ANOMALY   = 335.7469

EPHEMERIS_TYPE = 0
CLASSIFICATION_TYPE = U
NORAD_CAT_ID   = 27432
ELEMENT_SET_NO = 999
REV_AT_EPOCH   = 22577
BSTAR          = .44289454E-4
MEAN_MOTION_DOT = .42E-6
MEAN_MOTION_DDOT = 0

CCSDS_OMM_VERS = 2.0
CREATION_DATE  = 
ORIGINATOR     = 

OBJECT_NAME    = MIDORI II (ADEOS-II)
OBJECT_ID      = 2002-056A
CENTER_NAME    = EARTH
REF_FRAME      = TEME
TIME_SYSTEM    = UTC
MEAN_ELEMENT_THEORY = SGP/SGP4

EPOCH          = 2026-02-13T12:17:07.263168
MEAN_MOTION    = 14.29266963
ECCENTRICITY   = .0002193
INCLINATION    = 98.7724
RA_OF_ASC_NODE = 2.8293
ARG_OF_PERICENTER = 75.7486
MEAN_ANOMALY   = 284.3939

EPHEMERIS_TYPE = 0
CLASSIFICATION_TYPE = U
NORAD_CAT_ID   = 27597
ELEMENT_SET_NO = 999
REV_AT_EPOCH   = 20684
BSTAR          = .16187E-3
MEAN_MOTION_DOT = .366E-5
MEAN_MOTION_DDOT = 0

CCSDS_OMM_VERS = 2.0
CREATION_DATE  = 
ORIGINATOR     = 

OBJECT_NAME    = H-2A R/B
OBJECT_ID      = 2002-056E
CENTER_NAME    = EARTH
REF_FRAME      = TEME
TIME_SYSTEM    = UTC
MEAN_ELEMENT_THEORY = SGP/SGP4

EPOCH          = 2026-02-13T12:00:56.143584
MEAN_MOTION    = 14.33743734
ECCENTRICITY   = .0069168
INCLINATION    = 98.3156
RA_OF_ASC_NODE = 5.7936
ARG_OF_PERICENTER = 233.1631
MEAN_ANOMALY   = 237.1382

EPHEMERIS_TYPE = 0
CLASSIFICATION_TYPE = U
NORAD_CAT_ID   = 27601
ELEMENT_SET_NO = 999
REV_AT_EPOCH   = 21064
BSTAR          = .13156E-3
MEAN_MOTION_DOT = .333E-5
MEAN_MOTION_DDOT = 0

CCSDS_OMM_VERS = 2.0
CREATION_DATE  = 
ORIGINATOR     = 

OBJECT_NAME    = CZ-4B R/B
OBJECT_ID      = 2003-049C
CENTER_NAME    = EARTH
REF_FRAME      = TEME
TIME_SYSTEM    = UTC
MEAN_ELEMENT_THEORY = SGP/SGP4

EPOCH          = 2026-02-13T12:30:08.360640
MEAN_MOTION    = 14.54994086
ECCENTRICITY   = .004725
INCLINATION    = 98.6852
RA_OF_ASC_NODE = 38.4827
ARG_OF_PERICENTER = 306.4050
MEAN_ANOMALY   = 53.2792

EPHEMERIS_TYPE = 0
CLASSIFICATION_TYPE = U
NORAD_CAT_ID   = 28059
ELEMENT_SET_NO = 999
REV_AT_EPOCH   = 18308
BSTAR          = .13623E-3
MEAN_MOTION_DOT = .543E-5
MEAN_MOTION_DDOT = 0

CCSDS_OMM_VERS = 2.0
CREATION_DATE  = 
ORIGINATOR     = 

OBJECT_NAME    = CZ-2C R/B
OBJECT_ID      = 2004-012C
CENTER_NAME    = EARTH
REF_FRAME      = TEME
TIME_SYSTEM    = UTC
MEAN_ELEMENT_THEORY = SGP/SGP4

EPOCH          = 2026-02-13T03:40:03.807840
MEAN_MOTION    = 15.61682346
ECCENTRICITY   = .00154786
INCLINATION    = 97.7303
RA_OF_ASC_NODE = 107.1704
ARG_OF_PERICENTER = 44.4307
MEAN_ANOMALY   = 315.8188

EPHEMERIS_TYPE = 0
CLASSIFICATION_TYPE = U
NORAD_CAT_ID   = 28222
ELEMENT_SET_NO = 999
REV_AT_EPOCH   = 20044
BSTAR          = .54855981E-3
MEAN_MOTION_DOT = .47604E-3
MEAN_MOTION_DDOT = 0

CCSDS_OMM_VERS = 2.0
CREATION_DATE  = 
ORIGINATOR     = 

OBJECT_NAME    = SL-16 R/B
OBJECT_ID      = 2004-021B
CENTER_NAME    = EARTH
REF_FRAME      = TEME
TIME_SYSTEM    = UTC
MEAN_ELEMENT_THEORY = SGP/SGP4

EPOCH          = 2026-02-13T01:28:06.291552
MEAN_MOTION    = 14.14592032
ECCENTRICITY   = .00031003
INCLINATION    = 70.9991
RA_OF_ASC_NODE = 284.1794
ARG_OF_PERICENTER = 70.6385
MEAN_ANOMALY   = 289.5073

EPHEMERIS_TYPE = 0
CLASSIFICATION_TYPE = U
NORAD_CAT_ID   = 28353
ELEMENT_SET_NO = 999
REV_AT_EPOCH   = 11935
BSTAR          = .1704415E-3
MEAN_MOTION_DOT = .28E-5
MEAN_MOTION_DDOT = 0

CCSDS_OMM_VERS = 2.0
CREATION_DATE  = 
ORIGINATOR     = 

OBJECT_NAME    = CZ-4B R/B
OBJECT_ID      = 2004-035C
CENTER_NAME    = EARTH
REF_FRAME      = TEME
TIME_SYSTEM    = UTC
MEAN_ELEMENT_THEORY = SGP/SGP4

EPOCH          = 2026-02-13T00:54:02.506464
MEAN_MOTION    = 15.28604047
ECCENTRICITY   = .00338536
INCLINATION    = 97.3546
RA_OF_ASC_NODE = 78.5800
ARG_OF_PERICENTER = 58.1082
MEAN_ANOMALY   = 302.3444

EPHEMERIS_TYPE = 0
CLASSIFICATION_TYPE = U
NORAD_CAT_ID   = 28415
ELEMENT_SET_NO = 999
REV_AT_EPOCH   = 17614
BSTAR          = .31111929E-3
MEAN_MOTION_DOT = .8731E-4
MEAN_MOTION_DDOT = 0

CCSDS_OMM_VERS = 2.0
CREATION_DATE  = 
ORIGINATOR     = 

OBJECT_NAME    = CZ-2C R/B
OBJECT_ID      = 2004-046B
CENTER_NAME    = EARTH
REF_FRAME      = TEME
TIME_SYSTEM    = UTC
MEAN_ELEMENT_THEORY = SGP/SGP4

EPOCH          = 2026-02-13T08:45:01.565280
MEAN_MOTION    = 14.26983613
ECCENTRICITY   = .0138431
INCLINATION    = 98.1994
RA_OF_ASC_NODE = 320.8597
ARG_OF_PERICENTER = 226.5078
MEAN_ANOMALY   = 132.4529

EPHEMERIS_TYPE = 0
CLASSIFICATION_TYPE = U
NORAD_CAT_ID   = 28480
ELEMENT_SET_NO = 999
REV_AT_EPOCH   = 10503
BSTAR          = .61459E-4
MEAN_MOTION_DOT = .123E-5
MEAN_MOTION_DDOT = 0

CCSDS_OMM_VERS = 2.0
CREATION_DATE  = 
ORIGINATOR     = 

OBJECT_NAME    = ARIANE 5 R/B
OBJECT_ID      = 2004-049H
CENTER_NAME    = EARTH
REF_FRAME      = TEME
TIME_SYSTEM    = UTC
MEAN_ELEMENT_THEORY = SGP/SGP4

EPOCH          = 2026-02-13T10:43:44.053824
MEAN_MOTION    = 14.85217459
ECCENTRICITY   = .0085391
INCLINATION    = 98.2586
RA_OF_ASC_NODE = 212.0036
ARG_OF_PERICENTER = 69.9935
MEAN_ANOMALY   = 291.0448

EPHEMERIS_TYPE = 0
CLASSIFICATION_TYPE = U
NORAD_CAT_ID   = 28499
ELEMENT_SET_NO = 999
REV_AT_EPOCH   = 14219
BSTAR          = .12249E-3
MEAN_MOTION_DOT = .1057E-4
MEAN_MOTION_DDOT = 0

CCSDS_OMM_VERS = 2.0
CREATION_DATE  = 
ORIGINATOR     = 

OBJECT_NAME    = CZ-2D R/B
OBJECT_ID      = 2005-024B
CENTER_NAME    = EARTH
REF_FRAME      = TEME
TIME_SYSTEM    = UTC
MEAN_ELEMENT_THEORY = SGP/SGP4

EPOCH          = 2026-02-13T12:16:03.999360
MEAN_MOTION    = 15.57996012
ECCENTRICITY   = .0007663
INCLINATION    = 97.3616
RA_OF_ASC_NODE = 58.8124
ARG_OF_PERICENTER = 104.4823
MEAN_ANOMALY   = 255.7284

EPHEMERIS_TYPE = 0
CLASSIFICATION_TYPE = U
NORAD_CAT_ID   = 28738
ELEMENT_SET_NO = 999
REV_AT_EPOCH   = 13601
BSTAR          = .52221E-3
MEAN_MOTION_DOT = .39181E-3
MEAN_MOTION_DDOT = 0

